,Location Name,Latitude,Longitude,Address,Description,Plugs_wall_AU/NZ,Plugs_CHAdeMO,Plugs_CCS/SAE,Plugs_Tesla,Plugs_J-1772,Plugs_Type2,Power 1,Power 2,Location_category ,charging_stations,payment,Plugs_Caravan_Mains_Socket,Plugs_Three_Phase,Plugs_Commando,Plugs_Other,State,Town
0,Gatton,-27.55140366,152.3350726,"Building 8156, The University of Queensland, Main Drive & Outer Ring Road, Gatton QLD 4343",University of Queensland Gatton Veterinary Hospital carpark,1.0,1.0,1.0,1.0,0,0.0,50,22,Commercial,4.0,0.2,0.0,0.0,0.0,0.0,,
1,Cairns,-16.92045651,145.7788731,"1 Pier Point Rd, Cairns City QLD 4870, Australia",Lagoon car park (between the Esplanade and Pier Point Rd),0.0,1.0,1.0,0.0,0,2.0,50,22,Public,3.0,0.3,0.0,0.0,0.0,0.0,,
2,Rockhampton,-23.38227211,150.5134619,"172-189 Alma St, Rockhampton City QLD 4700, Australia",Alma St carpark of council building.,0.0,1.0,1.0,0.0,0,2.0,50,22,Public,3.0,0.2,0.0,0.0,0.0,0.0,,
3,Coolangatta,-28.16419699,153.5152736,"1 Eastern Ave, Bilinga 4225","Gold Coast Airport. Carparks near northbound second entrance off Gold Coast Highway, near amenities",0.0,1.0,1.0,0.0,0,2.0,50,22,Public,3.0,0.3,0.0,0.0,0.0,0.0,,
4,Hamilton,-27.44449167,153.0836111,"North Shore Hamilton
281 MacArthur Ave, Hamilton QLD 4007","Eat St carpark, near roundabout at end of Macarthur Ave. Ultimate location will be at a new park created by closure of Curtin Ave West, close to Kingsford Smith Dr and Gateway Motorway (from 2019).",0.0,2.0,2.0,0.0,0,2.0,50,22,Public,5.0,0.3,0.0,0.0,0.0,0.0,,
5,Maryborough,-25.53982619,152.6991534,"102 Lennox St, Maryborough 4650","Lennox St (near Alice St), perpendicular car parks in front of government building",0.0,1.0,1.0,0.0,0,1.0,50,22,Public,3.0,0.2,0.0,0.0,0.0,0.0,,
6,Childers,-25.23560702,152.2788755,"1-3 Crescent St, Childers QLD 4660, Australia","Crescent St, new dedicated carpark created near off-street caravan parking",0.0,1.0,1.0,0.0,0,1.0,50,22,Public,4.0,0.3,0.0,0.0,0.0,0.0,,
7,Marlborough,-22.82764427,149.9327796,"71209 Kunwarara Rd, Marlborough QLD 4705, Australia","Puma service station, south of Marlborough",0.0,1.0,1.0,0.0,0,2.0,50,22,Public,3.0,0.2,0.0,0.0,0.0,0.0,,
8,Mackay,-21.13971112,149.1852379,"3 Gregory St, Mackay QLD 4740, Australia",Council owned Carpark cnr Gregory and River Sts,0.0,1.0,1.0,0.0,0,2.0,50,22,Public,3.0,0.2,0.0,0.0,0.0,0.0,,
9,Bowen,-20.01660114,148.2480204,"80 Santa Barbara Parade, Bowen QLD 4805, Australia","Santa Barbara Pde, near tourist info building and toilets.",0.0,1.0,1.0,0.0,0,2.0,50,22,Public,3.0,0.2,0.0,0.0,0.0,0.0,,
10,Tully,-17.93486278,145.9244323,"Morris St, Tully QLD 4854, Australia","Parking in council carpark cnr Writ Ln/Morris St, near playground",0.0,1.0,1.0,0.0,0,2.0,50,22,Public,3.0,0.3,0.0,0.0,0.0,0.0,,
11,Miriam Vale,-24.32778446,151.5601492,"39 Blomfield St, Miriam Vale QLD 4677, Australia","Blomfield St, On-street perpendicular parking just north of Alf Larson Park",0.0,1.0,1.0,0.0,0,2.0,50,22,Public,3.0,0.2,0.0,0.0,0.0,0.0,,
12,Carmila,-21.90865281,149.4090921,"8 Music St, Carmila QLD 4739, Australia","Near Service Station, Carmila",0.0,1.0,1.0,0.0,0,2.0,50,22,Public,3.0,0.2,0.0,0.0,0.0,0.0,,
13,Townsville,-19.32382549,146.7587996,"4 James Cook Dr, Douglas QLD 4814, Australia","James Cook University, near Supermarket",0.0,1.0,1.0,0.0,0,2.0,50,22,Public,3.0,0.2,0.0,0.0,0.0,0.0,,
14,Toowoomba,-27.5202159,151.8501711,"10783 Warrego Hwy, Charlton QLD 4350, Australia","Caltex Charlton Travel Centre, Warrego Hwy",0.0,1.0,1.0,0.0,0,2.0,50,22,Public,3.0,0.2,0.0,0.0,0.0,0.0,,
15,Cooroy,-26.418047,152.911429,"Cooroy Railway Station, Cooroy QLD 4563, Australia",Cooroy Train Station carpark,0.0,1.0,1.0,0.0,0,2.0,50,22,Public,3.0,0.2,0.0,0.0,0.0,0.0,,
16,Springfield,-27.68194444,152.8997222,"4 David Henry Way, Springfield Central QLD 4300, Australia",Carpark on David Henry Way,0.0,1.0,1.0,0.0,0,2.0,50,22,Public,3.0,0.2,0.0,0.0,0.0,0.0,,
17,Yarraville,-37.81899541,144.8964976,"2/209 Hyde St, Yarraville VIC 3013","In carpark of Unit 2/209. If cars parked call phone or ask at the AAkonsult offices. Locked gates outside business hours, try calling the mobile number listed but as this is a business the chances of getting through depend on time of calling, (e.g. very late at night would not be a good time!).",0.0,0.0,0.0,1.0,0,0.0,0,22,Public,1.0,,0.0,0.0,0.0,0.0,,
18,Kensington,-37.79687512,144.926417,"72 Altona Street, Kensington VIC 3031",BYO Type 2 Mennekes cable,0.0,0.0,0.0,0.0,0,2.0,0,22,Public,2.0,0.3,0.0,0.0,0.0,0.0,,
19,Docklands,-37.81279364,144.9373902,"8-9 Star Circus, Docklands VIC 3008, Australia","Parking level 1 yellow, section D.",0.0,0.0,0.0,1.0,0,0.0,0,22,Commercial,1.0,0,0.0,0.0,0.0,0.0,,
20,Docklands,-37.81209916,144.9392454,"90 Waterfront Way, Docklands VIC 3008, Australia","East car park, level 1, south end. Park and charge up to 90 min free when buying $10 at Woolworth. Max 11.5kW (3 phase x 16A x 240 voltage) EXTREMELY short cable. Just reaches to plug in point.",0.0,0.0,0.0,1.0,0,0.0,0,22,Commercial,1.0,0,0.0,0.0,0.0,0.0,,
21,Carlton,-37.80216073,144.9671638,204-218 Lygon St Carlton Victoria 3053 Australia,Station located on the right hand side as you enter Lygon Street Car Park. Charging is free with paid parking at $5 per hr. The Chargepoint charger has been replaced with a Type2 Ocular charger that opperates with the 'exploren' app. App is quick to install and register and opperates reliably. Good charging station,0.0,0.0,0.0,0.0,0,1.0,0,22,Commercial,1.0,p,0.0,0.0,0.0,0.0,,
22,Carlton,-37.80320151,144.9717566,"11 Nicholson St, Carlton VIC 3053, Australia",Entry to the Melbourne Museum Cark Park is from either Nicholson Street or Rathdowne Street. Charging stations are on car park level P2. Free to use Delta chargers.,0.0,0.0,0.0,0.0,2,0.0,0,22,Commercial,2.0,p,0.0,0.0,0.0,0.0,,
23,Parliament PI,-37.8110789,144.9764385,"1 Parliament Square Off, Parliament Pl, Melbourne VIC 3002, Australia","Porsche Destination Chargers, 11kW. 2 stations on wall straight ahead after entrance.",0.0,0.0,0.0,0.0,0,2.0,0,22,Commercial,2.0,p,0.0,0.0,0.0,0.0,,
24,Pullman Melbourne,-37.81581134,144.9832392,"192 Wellington Parade, Melbourne VIC 3002","Dining, Restrooms, Valet Parking, WiFi, Park, EV Parking, Lodging",0.0,0.0,0.0,2.0,0,0.0,0,22,Commercial,2.0,p,0.0,0.0,0.0,0.0,,
25,Port Melbourne,-37.82992222,144.9171103,"46 Cook St, Port Melbourne VIC 3207, Australia","10A double power point next to rear access door to main retail space. Parking is difficult during trading hours because the power point is positioned along the drive thru lane of Hungry Jacks. Access after Hungry Jacks has ceased trading is a safer proposition, but this location can be still be useful as last resort with the help of an extension cord if you don't mind it being driven over and parking in the waiting bay alongside the drive-thru lane.
Location of pin is accurate.",1.0,0.0,0.0,0.0,0,0.0,0,22,Public,1.0,p,0.0,0.0,0.0,0.0,,
26,Port Melbourne,-37.83163355,144.9194251,"30 Prohasky St, Port Melbourne VIC 3207, Australia",GET Electric with 7 22kW GET electric vehicle chargers,0.0,0.0,0.0,0.0,0,7.0,0,22,Public,7.0,0.31,0.0,0.0,0.0,0.0,,
27,Port Melbourne,-37.83316274,144.9197754,"327 Plummer St, Port Melbourne VIC 3207, Australia",Download the GET Electric app to begin instant charging.,0.0,0.0,0.0,0.0,0,3.0,0,22,Public,3.0,0.2,0.0,0.0,0.0,0.0,,
28,Port Melbourne,-37.8297164,144.9311229,"525 Graham St, Port Melbourne VIC 3207, Australia","2x 7kw chargers.
BYO cable",0.0,0.0,0.0,0.0,0,2.0,0,22,Public,2.0,0,0.0,0.0,0.0,0.0,,
29,South Melbourne,-37.83248694,144.9564174,"322 Coventry St, South Melbourne VIC 3205","Entry via Coventry Street, and located at the middle of the rooftop carpark (next to the lift). 2 x Type 2 (Mennekes) ports, BYO cable. No app required.",0.0,0.0,0.0,0.0,0,2.0,0,22,Commercial,2.0,0,0.0,0.0,0.0,0.0,,
30,South Melbourne,-37.82974328,144.960726,"229 Coventry St, South Melbourne VIC 3205, Australia",A 240v wall plug is in the back corner of the Level 1 carpark. Next to spot 60.,1.0,0.0,0.0,0.0,0,0.0,0,22,Public,1.0,p,0.0,0.0,0.0,0.0,,
31,South Melbourne,-37.83103692,144.961768,"214 Coventry street, south Melbourne",Not sure if it is private or public,0.0,0.0,0.0,1.0,0,0.0,50,0,Public,1.0,,0.0,0.0,0.0,0.0,,
32,South Melbourne,-37.83189437,144.9690271,"15-29 Bank Street, South Melbourne VIC 3205, Australia",There are around four wall-plugs on each floor and a great location to get some extra juice when you park there for work.,21.0,0.0,0.0,0.0,0,0.0,0,22,Public,21.0,p,0.0,0.0,0.0,0.0,,
33,Queens Road,-37.83477276,144.9737461,"1-3 Queens Road, Melbourne VIC 3004, Australia",Several PowerPoints around the place.,1.0,0.0,0.0,0.0,0,0.0,0,22,Public,1.0,p,0.0,0.0,0.0,0.0,,
34,Queens Road,-37.84977063,144.9784513,"67 Queens Rd, Melbourne VIC 3004",Available at bays 23 & 24,0.0,0.0,0.0,3.0,0,0.0,0,22,Commercial,3.0,p,0.0,0.0,0.0,0.0,,
35,Port Melbourne,-37.82377034,144.9265125,"2 Thackray Rd, Port Melbourne VIC 3207, Australia",Middyï¿½s Port Melbourne 25kW Delta DC Only available during store trading hours. Trading Hours Monday to Friday 6.00am - 5.00pm Saturdays 7.00am - 12.00pm,0.0,1.0,1.0,0.0,0,0.0,50,0,Public,2.0,0.4,0.0,0.0,0.0,0.0,,
36,South Wharf,-37.82586889,144.9552364,"16 Normanby Road, South Wharf VIC 3006, Australia","PowerPoint on west wall , enter car park go left as far as you can. High up on wall. Several in the door 10 parking area",3.0,0.0,0.0,0.0,0,0.0,0,22,Commercial,3.0,p,0.0,0.0,0.0,0.0,,
37,Southbank,-37.81609341,144.9584272,"8 Whiteman Street, Southbank, Victoria, Australia, VIC 3006","Lodging, Dining, EV Parking, Restrooms, Shopping, WiFi",0.0,0.0,0.0,1.0,0,0.0,0,22,Public,1.0,,0.0,0.0,0.0,0.0,,
38,Southbank,-37.82082443,144.9649806,"70 City Rd, Southbank VIC 3006, Australia","2 x Porsche Destination Chargers, directly on the right after entry.",0.0,0.0,0.0,0.0,0,2.0,0,22,Public,2.0,0,0.0,0.0,0.0,0.0,,
39,Southbank,-37.82076345,144.9663122,"35-47 City Rd, Southbank VIC 3006, Australia","9 EV-Link chargers located on all levels of the car park (3 on each level). On the left parking spots of every level, near the lifts.",0.0,0.0,0.0,0.0,0,9.0,0,22,Public,9.0,,0.0,0.0,0.0,0.0,,
40,Southbank,-37.82123242,144.9673592,2 Kavanagh St Southbank VIC 3006 Australia,2 x EV plugs (J1772) that require no network card and are free to use for EV drivers.,0.0,0.0,0.0,0.0,2,0.0,0,22,Commercial,2.0,p,0.0,0.0,0.0,0.0,,
41,Downie St,-37.82020302,144.9555652,"25 Downie St, Melbourne VIC 3000, Australia","Lodging, Restrooms, Dining, EV Parking",0.0,0.0,0.0,0.0,0,2.0,0,22,Public,2.0,,0.0,0.0,0.0,0.0,,
42,Flinders Ln,-37.81890714,144.9577073,"476 Flinders Ln, Melbourne VIC 3000, Australia","Entrance from Flinders Lane. One Type 2 Wallbox charger (with cable) in the Mercedes display to the left after you enter. Another Type 2 wall charger on level C (BYO cable, usually ICEd) and multiple 240V outlets you can use, all are free to use but you need to pay for parking (see photos for rates applicable April 2022).",1.0,0.0,0.0,0.0,0,2.0,0,22,Public,3.0,0,0.0,0.0,0.0,0.0,,
43,Flinders Ln,-37.81861176,144.9586537,"450 Flinders Ln, Melbourne VIC 3000, Australia","10 x AC charger (Type 2), varying number on each floor. The first 4 floors are public access via Secure Parking, floors 5-9 are for Deloitte Employees only. Feb 2022: the two chargers at level 2 now have a ï¿½reservedï¿½ sign up for ServiceNow employees.",0.0,0.0,0.0,0.0,0,10.0,0,22,Public,10.0,p,0.0,0.0,0.0,0.0,,
44,Flinders St,-37.8180318,144.9640101,"300 Flinders St, Melbourne VIC 3000, Australia",2 x Tesla Destination Chargers on Level 2.,0.0,0.0,0.0,2.0,0,0.0,0,22,Public,2.0,p,0.0,0.0,0.0,0.0,,
45,Collins St,-37.81496609,144.9700935,"123 Collins St, Melbourne VIC 3000, Australia","Lodging, Dining, Shopping, Restrooms, EV Parking, WiFi, Park",0.0,0.0,0.0,1.0,0,0.0,0,22,Workplace,1.0,p,0.0,0.0,0.0,0.0,,
46,Flinders St,-37.81621089,144.9709391,"114-128 Flinders St, Melbourne VIC 3000, Australia","2 x Tesla AC 4kW chargers (Level 5); and 2 x Type 2 AC 4kW chargers (Level 6). Enter via Flinders Lane gets you directly to level 5, and turn right. Otherwise enter via Flinders St and keep going up until you reach level 5 and 6.",0.0,0.0,0.0,3.0,0,2.0,0,22,Public,5.0,0,0.0,0.0,0.0,0.0,,
47,Russell St,-37.81180407,144.9677026,"Russell St, Melbourne, Victoria, 3000 Australia","Chargefox network, Charging free with parking entry, Enter car park from Russell St. Two SmartWallbox universal charging stations: one is located on the rooftop level (immediately on your right after entry), and the other is located on level 3. Look for the blue coloured concrete parking places. BYO cable required however cables can be purchased via jetcharge.com.au and collected onsite via parking management, please contact JET Charge on 1300 856 328 for help obtaining a cable - During business hours. Charging rates: 11kW via three phase or 3.5kW via single phase.",0.0,0.0,0.0,0.0,0,2.0,0,22,Commercial,2.0,0,0.0,0.0,0.0,0.0,,
48,Collins St,-37.81780946,144.9552413,"589-599 Little Collins St, Melbourne VIC 3000, Australia",3 chargers for guests. Enter main gates and charging bays are in front of the lifts as you proceed down the first ramp. Spots are tight.,0.0,0.0,0.0,0.0,0,3.0,0,22,Public,3.0,0,0.0,0.0,0.0,0.0,,
49,Bourke St,-37.81638627,144.9547755,"636 Bourke St, Melbourne VIC 3000, Australia",Enter via Langs Lane. Only available to Alto Hotel guests. Register for ChargePoint Card at chargepoint.com.au,2.0,0.0,0.0,3.0,1,0.0,0,22,Workplace,7.0,0,0.0,0.0,0.0,0.0,,
50,Bourke St,-37.81477906,144.956447,"542 Little Bourke St, Melbourne VIC 3000, Australia","North west corner of most levels, power point low on wall near fire hose reel",1.0,0.0,0.0,0.0,0,0.0,0,22,Public,1.0,p,0.0,0.0,0.0,0.0,,
51,Lonsdale St,-37.81343708,144.955934,"535 Little Lonsdale St, Melbourne VIC 3004, Australia","Dining, EV Parking, Lodging, Shopping, Restrooms, Park",0.0,0.0,0.0,2.0,0,0.0,0,22,Public,2.0,p,0.0,0.0,0.0,0.0,,
52,Bourke St,-37.81581182,144.9595123,"501 Bourke Street, Melbourne? VIC? 3000, Australia",2 Tesla plus 2 Type 2 Socket charging stations located on level B1 near the members lift. Car park entry on Chancery Lane off Bourke Street or off Little Collins Street. 2nd charger spot is behind the down ramp. Installed by JET Charge and on Chargefox Network. Type 2 to Type 1 cables included. If you have a Type 2 car you need BYO cable.,0.0,0.0,0.0,2.0,1,2.0,0,22,Public,5.0,0,0.0,0.0,0.0,0.0,,
53,Lonsdale St,-37.8130787,144.9582143,"460 Lonsdale St, Melbourne VIC 3000, Australia",Parking & Dining,1.0,0.0,0.0,0.0,0,0.0,0,22,Public,1.0,p,0.0,0.0,0.0,0.0,,
54,Lonsdale St,-37.81137439,144.9633783,"300 Lonsdale St, Melbourne VIC 3000, Australia",Melbourne Central Carpark P2. Outlet is located behind the pillar to the left of the lift.,1.0,0.0,0.0,0.0,0,0.0,0,22,Public,1.0,p,0.0,0.0,0.0,0.0,,
55,Latrobe Street,-37.81241851,144.95362,300 Latrobe Street Melbourne,Only 10A wall socket available,3.0,0.0,0.0,0.0,0,0.0,0,22,Public,3.0,p,0.0,0.0,0.0,0.0,,
56,West Melbourne,-37.81010363,144.9510094,"45 Dudley St, West Melbourne VIC 3003, Australia","Motel with limited car parking. 10A PowerPoint/Powerboard at rear roller door, will need extension lead.",1.0,0.0,0.0,0.0,0,0.0,0,22,Public,1.0,,0.0,0.0,0.0,0.0,,
57,Queen St,-37.80782358,144.9581717,"460 Queen St, Melbourne VIC 3000, Australia",12 x Schneider type 2 EV chargers located in B2 level BYO charging cable. Ticketless payment system and underground 500 car spaces total.,0.0,0.0,0.0,0.0,0,12.0,0,22,Public,12.0,p,0.0,0.0,0.0,0.0,,
58,Bourke St,-37.81211268,144.9709222,"129 Bourke St, Melbourne VIC 3000, Australia","2 x Chargepoint J1772 (Type 1) chargers. Activate with RFID card and WAIT two mins, gently tug on the plug and eventually it will click and unlock. Vacuum services is available. Air and window cleaning is out of service. Operated by Juice Bar. ChargePoint card required. Officially known as 121 Exhibition Street but enter from Bourke Street.",0.0,0.0,0.0,0.0,2,0.0,0,22,Public,1.0,p,0.0,0.0,0.0,0.0,,
59,Russell St,-37.81129305,144.967822,"222 Russell St, Melbourne VIC 3000, Australia","2 x Porsche Destination Chargers (Type 2, 11kW AC). Entry level, bays 261 & 262.",0.0,0.0,0.0,0.0,0,2.0,0,22,Public,2.0,,0.0,0.0,0.0,0.0,,
60,Lonsdale St,-37.81067877,144.9666047,"180 Lonsdale Street, Melbourne VIC 3000, Australia",Public Wilson Parking basement levels of QV - 180 Lonsdale Street. Levels B2 and B3 each have a number of 10A switched wall outletsï¿½ total number of sockets available unverified!,3.0,0.0,0.0,0.0,0,0.0,0,22,Public,3.0,,0.0,0.0,0.0,0.0,,
61,Lonsdale St,-37.81017999,144.9705189,"59 Lonsdale St, Melbourne VIC 3000, Australia","2 x Tesla Destination Chargers (32A single phase). Turn right, down the ramp. Then on left hand side, two charging bays painted red.",1.0,0.0,0.0,2.0,0,0.0,0,22,Public,3.0,,0.0,0.0,0.0,0.0,,
62,Lonsdale St,-37.81005952,144.9696999,"Corner Exhibition & Lonsdale St, Melbourne VIC 3000, Australia",Valet parking required. HPWC is on level P4 near lifts. 1 X 32A single phase Tesla destination charger.,0.0,0.0,0.0,1.0,0,0.0,0,22,Commercial,1.0,p,0.0,0.0,0.0,0.0,,
63,St Kilda,-37.86223596,144.9739984,"2 Acland St, St Kilda VIC 3182, Australia","Available to the public. GROUND floor as you enter first right. Porsche Destination Charging, 11kW Type 2 plugs cable provided. Tesla chargers are not in compatibility mode to charge other EVs.",0.0,0.0,0.0,2.0,0,2.0,0,22,Public,4.0,p,0.0,0.0,0.0,0.0,,
64,St Kilda,-37.86765039,144.9742931,"30 Jacka Blvd, St Kilda VIC 3182, Australia","Dining, EV Parking, Park",0.0,0.0,0.0,0.0,0,1.0,0,22,Public,1.0,,0.0,0.0,0.0,0.0,,
65,Church St,-37.83218295,144.996426,"650 Church St, Cremorne VIC 3121, Australia","EV Parking, Restrooms, Dining, Shopping, WiFi",0.0,0.0,0.0,4.0,0,0.0,50,0,Commercial,4.0,p,0.0,0.0,0.0,0.0,,
66,Docklands,-37.81254895,144.939394,"78 Waterfront Way, Docklands VIC 3008, Australia",Wall points (10 amp) on support poles throughout carpark.,1.0,0.0,0.0,0.0,0,0.0,0,22,Public,1.0,,0.0,0.0,0.0,0.0,,
0,Geelong Supercharger,-38.065192,144.382451,"470-510 Princes Hwy, Geelong, VIC, Australia, 3214",,0.0,0.0,0.0,6.0,0,0.0,250.0,,,6.0,,0.0,0.0,,,,
1,Penguin Parade Visitor's Centre,-38.505496,145.148488,"995 Ventnor Road Summerlands VIC 3922, Australia",,0.0,1.0,1.0,0.0,0,0.0,25.0,,,2.0,,0.0,0.0,,,,
2,Mornington Supercharger,-38.234305,145.051085,"75 Mornington-Tyabb Rd, Mornington VIC 3931, Australia",,0.0,0.0,0.0,6.0,0,0.0,250.0,,,6.0,,0.0,0.0,,,,
3,Kingston Village Square (DC Fast Charger),-38.246677,144.540122,"Kingston Village Square, Grubb Rd, Ocean Grove VIC 3226, Australia",,0.0,1.0,1.0,0.0,0,2.0,50.0, 'unknown',,4.0,,0.0,0.0,,,,
4,BIG4 Phillip Island Caravan Park,-38.516829,145.35646,"24 Old Bridge Drive, Newhaven VIC 3925, Australia",,1.0,0.0,0.0,0.0,0,0.0,'unknown',,,2.0,,1.0,0.0,,,,
5,Sorrento Community Centre,-38.33856,144.737043,"860 Melbourne Rd, Sorrento VIC 3943, Australia",,0.0,4.0,4.0,0.0,0,0.0,50.065,,,8.0,,0.0,0.0,,,,
6,CTR Whittlesea,-37.51059,145.118412,"74A Church St, Whittlesea VIC 3757, Australia",,0.0,2.0,2.0,0.0,0,0.0,50.065,,,4.0,,0.0,0.0,,,,
7,Rye & Sorrento Camping,-38.320637,144.718201,"1380 Point Nepean Rd Portsea VIC 3944, Australia",,1.0,0.0,0.0,0.0,0,0.0,'unknown',,,1.0,,0.0,0.0,,,,
8,McDonaldâs Melton South,-37.722801,144.572251,"179-253 Exford Rd, Weir Views VIC 3338, Australia",,0.0,4.0,4.0,0.0,0,0.0,50.0,,,8.0,,0.0,0.0,,,,
9,RACV Torquay Resort,-38.34035,144.310815,"1 Great Ocean Road, Jan Juc, Victoria, Australia, VIC 3228",,0.0,4.0,4.0,2.0,1,0.0,350.0, 50.0,,11.0,,0.0,0.0,,,,
10,Leisurelink Aquatic & Recreation Centre (Coming Soon),-38.197536,144.321073,"240 Pioneer Rd, Waurn Ponds VIC 3216, Australia",,0.0,2.0,2.0,0.0,0,0.0,50.0,,,4.0,,0.0,0.0,,,,
11,Club Trillium (gym/pool) carpark,-37.565285,144.893834,"Trillium Boulevard, Mickleham VIC 3064, Australia",,0.0,0.0,0.0,0.0,1,0.0,'unknown',,,1.0,,0.0,0.0,,,,
12,Chelsea Swansea Road Car Park,-38.054795,145.115952,"1 Swansea Rd, Chelsea 3196, Australia",,0.0,4.0,4.0,0.0,0,0.0,50.065,,,8.0,,0.0,0.0,,,,
13,Ampol Dandenong Stud Road,-37.97134,145.223814,"Corner Stud And, Heatherton Rd, Dandenong VIC 3175, Australia",,0.0,4.0,4.0,0.0,0,0.0,350.0,,,8.0,,0.0,0.0,,,,
14,Uni Hill Town Centre,-37.683069,145.071032,"Shop 17/5 Janefield Dr, Bundoora VIC 3083, Australia",,0.0,4.0,4.0,0.0,0,0.0,50.0,,,8.0,,0.0,0.0,,,,
15,De Bortoli Wines Dixons Creek,-37.596809,145.412205,"58 Pinnacle Ln, Dixons Creek VIC 3775, Australia",,1.0,0.0,0.0,2.0,0,1.0,'unknown', 22.0,,4.0,,0.0,0.0,,,,
16,Bollygum Park,-37.529366,145.339116,"Bollygum Park, 40 Whittlesea-Kinglake Rd, Kinglake VIC 3763, Australia",,1.0,0.0,0.0,0.0,0,0.0,'unknown',,,1.0,,0.0,0.0,,,,
17,Moonee Ponds Supercharger,-37.765834,144.923586,"665 Mt Alexander Rd, Moonee Ponds VIC 3039, Australia",,0.0,0.0,0.0,6.0,0,0.0,120.0,,,6.0,,0.0,0.0,,,,
18,Sundowner Rockbank Caravan Park,-37.730067,144.659873,"Rockbank VIC 3335, Australia",,1.0,0.0,0.0,0.0,0,0.0,'unknown',,,1.0,,0.0,0.0,,,,
19,Red Rooster Vermont,-37.83192,145.213897,"401 Canterbury Rd, Vermont 3134, Australia",,0.0,2.0,2.0,0.0,0,0.0,50.065,,,4.0,,0.0,0.0,,,,
20,Queenscliff Brewhouse,-38.265713,144.663211,"2 Gellibrand St, Queenscliff, Australia, VIC 3225",,0.0,0.0,0.0,1.0,0,0.0,7.0,,,1.0,,0.0,0.0,,,,
21,Westfield Airport West,-37.713651,144.885527,"29-35 Louis St, Airport West VIC 3042, Australia",,0.0,2.0,6.0,0.0,0,0.0,50.0, 350.0,,8.0,,0.0,0.0,,,,
22,Shell Taylors Lakes,-37.69657,144.78212,"Coles Express 410 Melton Highway, Taylors Lakes VIC 3038, Australia",,0.0,4.0,4.0,0.0,0,0.0,350.0,,,8.0,,0.0,0.0,,,,
23,Tooradin Airfield / Wings & Fins Seafood Restaurant,-38.214809,145.422459,"3260 S Gippsland Hwy, Tooradin VIC 3980, Australia",,0.0,0.0,0.0,1.0,0,0.0,5.0,,,1.0,,0.0,0.0,,,,
24,Woodman Estate,-38.282256,145.125377,"136 Graydens Road Moorooduc VIC 3933, Australia",,0.0,0.0,0.0,0.0,0,2.0,'unknown',,,2.0,,0.0,0.0,,,,
25,Middyâs Port Melbourne,-37.828073,144.925718,"2 Thackray Rd, Port Melbourne VIC 3207, Australia",,0.0,1.0,1.0,0.0,0,0.0,25.0,,,2.0,,0.0,0.0,,,,
26,BIG4 Mornington Peninsula Holiday Park,-38.174557,145.141541,"2 Robinsons Rd, Frankston VIC 3199, Australia",,1.0,0.0,0.0,0.0,0,0.0,'unknown',,,1.0,,0.0,0.0,,,,
27,Club Delaray,-38.110037,145.336394,"20 Alphey Road, Clyde North VIC 3978, Australia",,0.0,0.0,0.0,0.0,0,1.0,'unknown',,,1.0,,0.0,0.0,,,,
28,Wanzl / Rectifier Technologies,-37.85402,145.104433,"97 Highbury Rd, Burwood VIC 3125, Australia",,0.0,0.0,1.0,0.0,0,0.0,'unknown',,,1.0,,0.0,0.0,,,,
29,Camberwell Supercharger,-37.828606,145.05643,"793 Burke Road , Camberwell, VIC, Australia, 3124",,0.0,0.0,0.0,6.0,0,0.0,120.0,,,6.0,,0.0,0.0,,,,
30,Melbourne Richmond Supercharger,-37.831997,144.995807,"650 Church St, Cremorne VIC 3121, Australia",,0.0,0.0,0.0,4.0,0,0.0,120.0,,,4.0,,0.0,0.0,,,,
31,BP Northpoint,-37.648097,144.994195,"1 Scanlon Drive, Epping VIC 3076, Australia",,0.0,4.0,4.0,0.0,0,0.0,350.0,,,8.0,,0.0,0.0,,,,
32,Stockland Point Cook,-37.884254,144.736465,"Main St & Murnong St, Point Cook VIC 3030, Australia",,0.0,0.0,0.0,0.0,1,0.0,'unknown',,,1.0,,0.0,0.0,,,,
33,Clifftop Accommodation Phillip Island,-38.504564,145.259653,"1 Marlin Street, Smiths Beach, VIC 3922",,0.0,0.0,0.0,2.0,0,0.0,22.0,,,2.0,,0.0,0.0,,,,
34,Stony point caravan park,-38.374257,145.221478,"5 Stony Point Road, Crib Point VIC 3919, Australia",,4.0,0.0,0.0,0.0,0,0.0,'unknown',,,4.0,,0.0,0.0,,,,
35,Belgrave Heights Convention Centre,-37.923605,145.348486,"23 Lockwood Rd, Belgrave Heights VIC 3160, Australia",,1.0,0.0,0.0,0.0,0,0.0,'unknown',,,1.0,,0.0,0.0,,,,
36,Corsair Solutions,-37.767107,145.03066,"370 Darebin Rd, Alphington VIC 3078, Australia",,0.0,0.0,2.0,0.0,0,0.0,80.0,,,2.0,,0.0,0.0,,,,
37,Monash University Caulfield Car Park,-37.876073,145.043688,"880 Princes Hwy Service Rd, Caulfield East VIC 3145, Australia",,1.0,1.0,1.0,0.0,0,0.0,50.0, 'unknown',,3.0,,0.0,0.0,,,,
38,Stud Park Shopping Centre,-37.9214,145.237553,"Corner Stud & Fullham Rd, Rowville 3178, Australia",,0.0,4.0,4.0,0.0,0,0.0,50.065,,,8.0,,0.0,0.0,,,,
39,Swinburne University - TC Building,-37.820819,145.039887,"20 William St, Hawthorn VIC 3122, Australia",,0.0,1.0,1.0,0.0,0,0.0,50.0,,,2.0,,0.0,0.0,,,,
40,Paradigm Hill Winery,-38.385929,145.071771,"26 Merricks Road Merricks VIC 3916, Australia",,0.0,0.0,0.0,1.0,0,0.0,22.0,,,1.0,,0.0,0.0,,,,
41,AWM Greentech Geelong,-38.163929,144.411376,"252-256 Portarlington Rd, Moolap, Victoria 3224",,0.0,0.0,0.0,0.0,0,1.0,'unknown',,,1.0,,0.0,0.0,,,,
42,Greenvale Woolworths,-37.616294,144.914873,"200 James Mirams Dr, Roxburgh Park VIC 3064, Australia",,0.0,0.0,0.0,0.0,0,1.0,'unknown',,,1.0,,0.0,0.0,,,,
43,King Henry Arts Cafe,-37.868948,145.351181,"320 Mount Dandenong Tourist Rd Sassafras VIC 3787, Australia",,1.0,0.0,0.0,0.0,0,0.0,'unknown',,,1.0,,0.0,0.0,,,,
44,Brunswick EV Hub,-37.773851,144.961886,"15 Edward St, Brunswick VIC 3056, Australia",,0.0,2.0,2.0,0.0,0,2.0,50.0, 'unknown',,6.0,,0.0,0.0,,,,
45,Huberts Estate,-37.697017,145.415698,"10 St Huberts Rd, Coldstream VIC 3770, Australia",,0.0,0.0,0.0,0.0,0,1.0,'unknown',,,1.0,,0.0,0.0,,,,
46,Botanic Ridge Village,-38.150115,145.290458,"10 Hummingbird Dr, Botanic Ridge VIC 3977, Australia",,0.0,0.0,0.0,0.0,0,2.0,'unknown',,,2.0,,0.0,0.0,,,,
47,EVolution HQ,-37.942988,145.11844,"Unit 32, 231 Osborne Avenue, Clayton South VIC 3169, Australia",,0.0,1.0,1.0,0.0,0,2.0,20.0, 22.0,,4.0,,0.0,0.0,,,,
48,dingley reserve ,-37.984056,145.137319,"Dingley Reserve, Dingley Village VIC 3172, Australia",,1.0,0.0,0.0,0.0,0,0.0,'unknown',,,1.0,,0.0,0.0,,,,
49,Woolworths Heidelberg,-37.758997,145.068632,"451 Lower Heidelberg Rd, Heidelberg VIC 3084, Australia",,0.0,0.0,0.0,0.0,0,16.0,'unknown',,,16.0,,0.0,0.0,,,,
50,Silverwater Resorts Phillip Island,-38.522528,145.392082,"17 Potters HIll Rd, Phillip Island, , Australia, VIC 3925",,0.0,0.0,0.0,2.0,0,0.0,22.0,,,2.0,,0.0,0.0,,,,
51,Bayside City Council,-37.959394,145.017704,"76 Royal Ave, Sandringham VIC 3191, Australia",,0.0,1.0,1.0,0.0,0,0.0,50.0,,,2.0,,0.0,0.0,,,,
52,Cranbourne Home (Out Of Service),-38.087041,145.279599,"2 Lesdon Ave, Cranbourne VIC 3977, Australia",,0.0,0.0,0.0,0.0,0,2.0,22.0,,,2.0,,0.0,0.0,,,,
53,Porsche Centre Brighton,-37.925691,145.027893,"855 Nepean Hwy, Bentleigh VIC 3204, Australia",,0.0,1.0,0.0,0.0,0,0.0,'unknown',,,1.0,,0.0,0.0,,,,
54,Knox Civic Centre,-37.871723,145.245056,"511 Burwood Hwy, Wantirna South VIC 3152, Australia",,0.0,0.0,0.0,0.0,0,2.0,'unknown',,,2.0,,0.0,0.0,,,,
55,Bunnings Sunshine,-37.776275,144.83008,"Bunnings Warehouse Sunshine, 480 Ballarat Rd, Sunshine North VIC 3020, Australia",,1.0,0.0,0.0,0.0,0,0.0,'unknown',,,1.0,,0.0,0.0,,,,
56,Eltham Leisure Centre,-37.722925,145.142426,"40 Brougham St, Eltham VIC 3095, Australia",,0.0,0.0,0.0,0.0,0,4.0,7.0,,,4.0,,0.0,0.0,,,,
57,Altona Gate Shopping Centre,-37.827587,144.848241,"124-134 Millers Rd, Altona North VIC 3025, Australia",,1.0,0.0,0.0,0.0,0,0.0,'unknown',,,1.0,,0.0,0.0,,,,
58,Berwick Nissan,-38.040047,145.343384,"6-10 Kangan Dr, Berwick VIC 3806",,0.0,0.0,0.0,0.0,0,1.0,'unknown',,,1.0,,0.0,0.0,,,,
59,Ten Minutes by Tractor,-38.394641,144.994231,"1333 Mornington-Flinders Rd, Main Ridge VIC 3928, Australia",,0.0,0.0,0.0,2.0,0,0.0,22.0,,,2.0,,0.0,0.0,,,,
60,Eldridge Estate Winery,-38.372182,145.018678,"120 Arthurs Seat Road, Red Hill VIC 3937, Australia",,0.0,0.0,0.0,1.0,0,1.0,'unknown', 22.0,,2.0,,0.0,0.0,,,,
61,Lakeside Villas at Crittenden Estate,-38.335276,145.018981,"25 Harrisons Rd, Dromana VIC 3936, Australia",,0.0,0.0,0.0,0.0,0,2.0,'unknown',,,2.0,,0.0,0.0,,,,
62,Armstrong Creek East Community Hub,-38.231922,144.368965,"46-70 Central Boulevard, Armstrong Creek VIC 3217, Australia",,0.0,0.0,0.0,0.0,0,6.0,'unknown',,,6.0,,0.0,0.0,,,,
63,Coles - Cobblebank Village,-37.713815,144.601847,"211 Ferris Rd, Melton South VIC 3338, Australia",,0.0,0.0,0.0,0.0,0,2.0,'unknown',,,2.0,,0.0,0.0,,,,
64,Sorrento Hotel,-38.338316,144.743447,"1 Esplanade, Sorrento VIC 3943, Australia",,1.0,0.0,0.0,0.0,0,0.0,'unknown',,,1.0,,0.0,0.0,,,,
65,Nelson Place Parking/Charging,-37.863107,144.904614,"Commonwealth Reserve, Williamstown VIC 3016, Australia",,0.0,0.0,0.0,0.0,0,2.0,'unknown',,,2.0,,0.0,0.0,,,,
66,Atura Hotel Dandenong,-38.002297,145.250432,"5-17 Doveton Avenue, Eumemmerring, Victoria, Australia, VIC 3177",,0.0,0.0,0.0,1.0,0,0.0,22.0,,,1.0,,0.0,0.0,,,,
67,Common Ground Project,-38.259646,144.276227,"675 Anglesea Rd, Freshwater Creek VIC 3217, Australia",,0.0,0.0,0.0,2.0,0,0.0,22.0,,,2.0,,0.0,0.0,,,,
68,Melbourne Airport - Qantas Valet Parking,-37.669133,144.851581,"15-25 Francis Briggs Road, Tullamarine, , Australia, VIC 3045",,0.0,0.0,0.0,2.0,0,0.0,22.0,,,2.0,,0.0,0.0,,,,
69,Cobblebank Stadium,-37.716016,144.599558,"Astley Dr, Bridge Rd, Strathtulloh VIC 3338, Australia",,0.0,1.0,1.0,0.0,0,0.0,'unknown',,,2.0,,0.0,0.0,,,,
70,Laverton Community Hub,-37.865302,144.76925,"Cohealth Clinic, Laverton Community Hub Corner Donald St &, Railway Ave, Laverton VIC 3028, Australia",,0.0,0.0,0.0,0.0,0,2.0,'unknown',,,2.0,,0.0,0.0,,,,
71,Ampol Foodary Altona North (Coming Soon),-37.84667,144.809201,"1 Horsburgh Drive, Altona North, VIC, 3025, Australia",,0.0,2.0,2.0,0.0,0,0.0,150.0,,,4.0,,0.0,0.0,,,,
72,Hobsons Bay Civic Centre,-37.863399,144.831492,"115 Civic Parade, Altona VIC 3018, Australia",,0.0,1.0,1.0,0.0,0,0.0,50.0,,,2.0,,0.0,0.0,,,,
73,Brimbank Shopping Centre,-37.751827,144.775257,"Brimbank Central Shopping Centre shop 81t, 28-72 Neale Rd, Deer Park VIC 3023, Australia",,0.0,0.0,0.0,0.0,0,2.0,'unknown',,,2.0,,0.0,0.0,,,,
74,Cranbourne West Community Hub (Coming Soon),-38.106929,145.250522,"75 Evans Rd, Cranbourne West VIC 3977, Australia",,0.0,0.0,0.0,0.0,0,2.0,'unknown',,,2.0,,0.0,0.0,,,,
75,Monash University Clayton - Car Park N1,-37.908137,145.131936,"10 Research Way, Clayton VIC 3168, Australia",,0.0,1.0,1.0,0.0,0,2.0,50.0, 22.0,,4.0,,0.0,0.0,,,,
76,Oak Park Sports & Aquatic Centre,-37.723715,144.920974,"Oak Park Reserve, 563 Pascoe Vale Rd, Oak Park VIC 3046, Australia",,0.0,0.0,0.0,0.0,1,2.0,'unknown',,,3.0,,0.0,0.0,,,,
77,Baptcare Strathalan,-37.728819,145.077998,"2-34 Erskine Rd, Macleod VIC 3085, Australia",,0.0,0.0,0.0,0.0,0,2.0,'unknown',,,2.0,,0.0,0.0,,,,
78,Leopold Library,-38.186249,144.46436,"31 Kensington Rd, Leopold VIC 3224",,0.0,0.0,0.0,0.0,0,1.0,'unknown',,,1.0,,0.0,0.0,,,,
79,Coburg Town Hall / Moreland City,-37.74111,144.970149,"90 Bell St, Coburg VIC 3058, Australia",,0.0,1.0,1.0,0.0,0,1.0,50.0, 'unknown',,3.0,,0.0,0.0,,,,
80,Amberlee Holiday Homes & Accommodation,-38.380923,144.912544,"306 Jetty Rd, Rosebud VIC 3939, Australia",,0.0,0.0,0.0,2.0,0,1.0,'unknown', 22.0,,3.0,,0.0,0.0,,,,
81,RACV Solar,-38.197552,144.344603,"Units 5 & 6, 8 Lewalan St, Grovedale VIC 3216, Australia",,0.0,0.0,0.0,0.0,0,1.0,22.0,,,1.0,,0.0,0.0,,,,
82,Solargain Hastings,-38.314125,145.184157,"2161 Frankston - Flinders Rd, Hastings VIC 3915, Australia",,0.0,0.0,0.0,0.0,0,2.0,'unknown',,,2.0,,0.0,0.0,,,,
83,Burwood Brickworks,-37.848953,145.133898,"70 Middleborough Road, Burwood East VIC 3151, Australia",,0.0,0.0,0.0,0.0,0,4.0,'unknown',,,4.0,,0.0,0.0,,,,
84,Hungry Jackâs Sunbury,-37.580985,144.724278,"27 Gap Rd, Sunbury VIC 3429, Australia",,0.0,0.0,0.0,0.0,0,2.0,'unknown',,,2.0,,0.0,0.0,,,,
85,AAkonsult,-37.818982,144.896722,"2/209 Hyde St, Yarraville VIC 3013",,0.0,0.0,0.0,1.0,0,0.0,'unknown',,,1.0,,0.0,0.0,,,,
86,Hyatt Place Caribbean Park (Coming Soon),-37.915767,145.216905,"38 Dalmore Dr, Scoresby VIC 3179, Australia",,0.0,0.0,1.0,0.0,0,2.0,'unknown',,,3.0,,0.0,0.0,,,,
87,Tarneit Park Hub (BYO Type 2),-37.833989,144.69899,"83 Leakes Rd, Tarneit VIC 3029, Australia",,0.0,0.0,0.0,0.0,0,1.0,'unknown',,,1.0,,0.0,0.0,,,,
88,Malvern Central (Coming Soon),-37.862909,145.027303,"K10, Malvern Central Shopping Centre, 110-122 Wattletree Rd, Armadale VIC 3143, Australia",,0.0,0.0,1.0,0.0,0,0.0,'unknown',,,1.0,,0.0,0.0,,,,
89,BM Autowerks,-37.90326,145.095351,"28-34 Westminster Street, Oakleighâ VICâ 3166, Australia",,0.0,0.0,0.0,0.0,1,0.0,7.6,,,1.0,,0.0,0.0,,,,
90,Ramada Resort by Wyndham Phillip Island,-38.471698,145.242237,"2128 Phillip Island Road, Cowes, VIC, Australia, VIC 3922",,0.0,0.0,0.0,2.0,0,0.0,5.0,,,2.0,,0.0,0.0,,,,
91,Cowes Transit Centre,-38.451339,145.240243,"83 Thompson Ave, Cowes VIC 3922, Australia",,0.0,0.0,0.0,2.0,1,1.0,'unknown', 7.0,,4.0,,0.0,0.0,,,,
92,Harrow Street Car Park,-37.821964,145.124448,"3 John St, Box Hill VIC 3128, Australia",,0.0,0.0,0.0,0.0,0,5.0,'unknown',,,5.0,,0.0,0.0,,,,
93,RACV Head Office (Service Centre Car Park),-37.952893,145.180067,"Browns Road, Noble Park Northâ VICâ 3174, Australia",,0.0,0.0,0.0,0.0,0,2.0,'unknown',,,2.0,,0.0,0.0,,,,
94,Hart's Farm,-38.4092,145.0067,"Gate 2, 300 Tucks Rd, Shoreham, VIC, Australia, VIC 3916",,0.0,0.0,0.0,1.0,0,0.0,2.0,,,1.0,,0.0,0.0,,,,
95,Darebin Civic Centre Precinct,-37.740102,145.005114,"274 Gower Street, Preston VIC 3072, Australia",,0.0,0.0,0.0,0.0,0,2.0,'unknown',,,2.0,,0.0,0.0,,,,
96,Nepean Country Club And & Day Spa,-38.398895,144.870509,"205 Browns Rd, Boneo VIC 3939, Australia",,1.0,0.0,0.0,0.0,1,0.0,'unknown',,,3.0,,0.0,1.0,,,,
97,Oakleigh South,-37.932688,145.097119,"23-25 Bunney Road, Oakleigh South VIC 3167, Australia",,0.0,0.0,0.0,0.0,0,1.0,7.0,,,1.0,,0.0,0.0,,,,
98,Quest Burwood East,-37.853643,145.162436,"317 Burwood Hwy, Burwood East VIC 3151, Australia",,1.0,0.0,0.0,0.0,0,0.0,'unknown',,,1.0,,0.0,0.0,,,,
99,Forest Hill Chase Shopping Centre,-37.835382,145.163537,"270 Canterbury Rd, Forest Hill VIC 3131, Australia",,0.0,0.0,0.0,0.0,0,2.0,'unknown',,,2.0,,0.0,0.0,,,,
100,CB Smith Reserve,-37.702614,144.969502,99 Jukes Road Fawkner VIC 3060 AU,,0.0,1.0,1.0,0.0,0,0.0,25.0,,,2.0,,0.0,0.0,,,,
101,Coburg North EV Fast Charge (Currently Out of Order),-37.718952,144.961498,"11 Boundary Rd, Coburg North VIC 3058, Australia",,0.0,1.0,1.0,0.0,0,0.0,50.0,,,2.0,,0.0,0.0,,,,
102,Energy Smart Water,-38.334999,144.98653,"11 Dalkeith Drive, Dromana VIC 3936, Australia",,0.0,0.0,0.0,0.0,1,0.0,'unknown',,,1.0,,0.0,0.0,,,,
103,hacyclon caravan park ,-38.317144,144.988947,"106 Marine Drive, Safety Beach VIC 3936, Australia",,1.0,0.0,0.0,0.0,0,0.0,'unknown',,,1.0,,0.0,0.0,,,,
104,The Glen,-37.875269,145.16523,"235 Springvale Road, Glen Waverley VIC 3150, Australia",,0.0,0.0,0.0,0.0,0,2.0,'unknown',,,2.0,,0.0,0.0,,,,
105,Donato Cafe,-38.256559,145.037439,"88 Craigie Rd, Mount Martha VIC 3934, Australia",,0.0,0.0,0.0,2.0,0,0.0,5.0,,,2.0,,0.0,0.0,,,,
106,Bru4U Geelong,-38.172122,144.367288,"4/100 Barwon Terrace, South Geelong VIC 3220, Australia",,0.0,0.0,0.0,0.0,0,1.0,'unknown',,,1.0,,0.0,0.0,,,,
107,Park Rises Residences,-37.797009,144.926387,"72 Altona Street, Kensington VIC 3031",,0.0,0.0,0.0,0.0,0,2.0,'unknown',,,2.0,,0.0,0.0,,,,
108,Paint Spot Niddrie,-37.735219,144.887807,"1 Elstone Ct, Niddrie VIC 3042, Australia",,0.0,0.0,0.0,0.0,0,0.0,'unknown',,,1.0,,0.0,1.0,,,,
109,(No Longer In Use) DHL Melbourne Gateway,-37.684086,144.863519,"4 mace Wy, Melbourne Airport VIC 3045, Australia",,0.0,0.0,0.0,0.0,0,1.0,'unknown',,,1.0,,0.0,0.0,,,,
110,Bayside Entertainment Centre,-38.140408,145.125184,"28 Beach St, Frankston VIC 3199, Australia",,0.0,0.0,0.0,0.0,0,2.0,7.0,,,2.0,,0.0,0.0,,,,
111,Diamond Valley Sports and Fitness Centre,-37.689194,145.110764,"44 Civic Dr, Greensborough VIC 3088, Australia",,0.0,0.0,0.0,0.0,0,2.0,'unknown',,,2.0,,0.0,0.0,,,,
112,Waverley Nissan,-37.906157,145.159718,"565-577 Springvale Rd, Mulgrave VIC 3170, Australia",,0.0,0.0,0.0,0.0,0,2.0,'unknown',,,2.0,,0.0,0.0,,,,
113,Grow Energy,-37.955662,145.038605,"325A Bay Road, Cheltenham VIC 3192",,0.0,0.0,0.0,0.0,0,4.0,'unknown',,,4.0,,0.0,0.0,,,,
114,Myuna Farm,-37.985484,145.232704,"182 Kidds Rd, Doveton VIC 3177, Australia",,0.0,0.0,0.0,0.0,0,2.0,'unknown',,,2.0,,0.0,0.0,,,,
115,Lockelec Rolling Stock,-37.995328,145.109648,"14 Capital Ct, Braeside VIC 3195, Australia",,0.0,0.0,0.0,1.0,0,0.0,'unknown',,,1.0,,0.0,0.0,,,,
116,Kelly Racing,-38.010174,145.110226,"45 Canterbury Rd Braeside VIC 3195, Australia",,0.0,0.0,0.0,0.0,1,0.0,'unknown',,,1.0,,0.0,0.0,,,,
117,"Footscray town hall, Maribyrnong city council",-37.804868,144.900362,"61 Napier St, Footscray VIC 3011, Australia",,0.0,0.0,0.0,0.0,0,2.0,'unknown',,,2.0,,0.0,0.0,,,,
118,Ivanhoe Gardens (Coming Soon),-37.754954,145.054043,"45 Linden Ave, Ivanhoe VIC 3079, Australia, Ivanhoe 3079",,0.0,0.0,0.0,0.0,0,3.0,22.0,,,3.0,,0.0,0.0,,,,
119,Manor Lakes Central Shopping Centre,-37.875049,144.612648,"455 Ballan Rd, Manor Lakes VIC 3024, Australia",,0.0,0.0,0.0,0.0,0,2.0,'unknown',,,2.0,,0.0,0.0,,,,
120,Wunggurrwil Dhurrung Centre,-37.876378,144.62706,"Wunggurrwil Dhurrung Centre 19 Communal Road, Wyndham Vale VIC 3024, Australia",,0.0,0.0,0.0,0.0,0,1.0,'unknown',,,1.0,,0.0,0.0,,,,
121,Pacific Werribee Shopping Centre,-37.875247,144.679638,"Derrimut Rd & Heaths Rd, Werribee, VIC, Australia, VIC 3030",,0.0,0.0,0.0,2.0,0,0.0,22.0,,,2.0,,0.0,0.0,,,,
122,The Pines Shopping Centre,-37.762252,145.16823,"181 Reynolds Rd, Doncaster East VIC 3109, Australia",,0.0,0.0,0.0,2.0,2,0.0,6.6, 22.0,,4.0,,0.0,0.0,,,,
123,Dandenong Agricultural and Pastoral Society,-37.983731,145.196402,"Dandenongâ VICâ 3175, Australia",,1.0,0.0,0.0,0.0,0,0.0,'unknown',,,1.0,,0.0,0.0,,,,
124,Rosebud Beach,-38.355584,144.901769,"980 Point Nepean Road, Rosebud VIC 3939, Australia",,3.0,0.0,0.0,0.0,0,0.0,'unknown',,,3.0,,0.0,0.0,,,,
125,Moonah Links,-38.406624,144.853314,"65 Peter Thomson Dr, Fingal VIC 3939, Australia",,1.0,0.0,0.0,0.0,0,0.0,'unknown',,,1.0,,0.0,0.0,,,,
126,Croydon Train Station Multi Level Car Park,-37.796959,145.280091,"Devon Street, Croydon, Victoria",,0.0,0.0,0.0,0.0,0,6.0,7.0,,,6.0,,0.0,0.0,,,,
127,Highpoint Shopping Centre - Basement Carpark,-37.772002,144.887869,"Rosamond Road, Maribyrnong VIC 3032, Australia",,1.0,0.0,0.0,0.0,0,0.0,'unknown',,,1.0,,0.0,0.0,,,,
128,Vaclift,-37.709632,144.871383,"39 Tullamarine Park Road, Tullamarine VIC 3043, Australia",,0.0,0.0,0.0,1.0,0,0.0,'unknown',,,1.0,,0.0,0.0,,,,
129,RACV Cape Schanck Resort,-38.461847,144.893721,"6 Presnell Ct, Cape Schanck VIC 3939, Australia",,1.0,0.0,0.0,2.0,0,4.0,4.0, 'unknown',,7.0,,0.0,0.0,,,,
130,Schnapper Point Dr Parking/Charging,-38.215455,145.035453,"Schnapper Point Dr, Mornington VIC 3931, Australia",,0.0,0.0,0.0,0.0,0,0.0,'unknown',,,1.0,,0.0,1.0,,,,
131,Priority One Trade Services,-38.231677,145.056367,"65 Watt Road, Morningtonâ VICâ 3931, Australia",,0.0,0.0,0.0,0.0,0,1.0,22.0,,,1.0,,0.0,0.0,,,,
132,Peninsula Home Shopping Centre,-38.220693,145.061207,"1130-1134 Nepean Highway, Mornington VIC 3931, Australia",,0.0,0.0,0.0,0.0,0,4.0,22.0,,,4.0,,0.0,0.0,,,,
133,Dandenong Market - Southern Car Park (Coming Soon),-37.984494,145.216329,"40 Cleeland St, Dandenong VIC 3175, Australia",,0.0,0.0,0.0,0.0,1,0.0,'unknown',,,1.0,,0.0,0.0,,,,
134,Ventia Head Office Carpark,-37.950648,145.080488,"20 Corporate Drive, Heathertonâ VICâ 3202, Australia",,0.0,0.0,0.0,0.0,2,0.0,6.6,,,2.0,,0.0,0.0,,,,
135,North Drive Office Complex,-37.909599,145.062347,"236 E Boundary Rd, Bentleigh East VIC 3165, Australia",,0.0,0.0,0.0,0.0,1,0.0,'unknown',,,1.0,,0.0,0.0,,,,
136,Hume Villa Motor Inn,-37.696652,144.959707,"1324 Sydney Rd, Fawkner VIC 3060, Australia",,1.0,0.0,0.0,0.0,0,0.0,'unknown',,,1.0,,0.0,0.0,,,,
137,Foreshore Camping,-38.359707,144.888748,"1380 Point Nepean Rd, Rosebud VIC 3939, Australia",,1.0,0.0,0.0,0.0,0,0.0,'unknown',,,1.0,,0.0,0.0,,,,
138,Dromana Drive-in,-38.329727,144.996685,"133 Nepean Hwy, Dromana VIC 3936, Australia",,0.0,0.0,0.0,0.0,0,6.0,'unknown',,,6.0,,0.0,0.0,,,,
139,Springvale Library,-37.957007,145.153146,"9 Hillcrest Grove, Springvale VIC 3171, Australia",,0.0,0.0,0.0,0.0,0,2.0,'unknown',,,2.0,,0.0,0.0,,,,
140,Waverley Gardens Shopping Centre,-37.935556,145.189902,"271 Police Rd, Mulgrave VIC 3170, Australia",,0.0,0.0,0.0,0.0,0,2.0,'unknown',,,2.0,,0.0,0.0,,,,
141,Element Melbourne Richmond,-37.826921,145.020707,"588 Swan St, Richmond VIC 3121, Australia",,0.0,0.0,0.0,0.0,0,4.0,22.0,,,4.0,,0.0,0.0,,,,
142,Springvale MEGA Centre,-37.94168,145.167746,"754-769 Princes Hwy, Springvale VIC 3171, Australia",,0.0,0.0,0.0,0.0,0,2.0,'unknown',,,2.0,,0.0,0.0,,,,
143,Sandown Raceway Carpark,-37.950836,145.162663,"37 Davis Way, Springvale VIC 3171, Australia",,0.0,0.0,0.0,0.0,0,0.0,8.0,,,3.0,,0.0,3.0,,,,
144,Pullman Melbourne Albert Park,-37.849977,144.97831,"67 Queens Rd, Melbourne VIC 3004, Australia",,0.0,0.0,0.0,3.0,0,0.0,11.0, 22.0,,3.0,,0.0,0.0,,,,
145,BMW South Yarra,-37.849295,145.00279,"145 Williams Rd, Prahran VIC 3181, Australia",,2.0,0.0,0.0,0.0,0,2.0,'unknown',,,4.0,,0.0,0.0,,,,
146,Barwon Valley Lodge,-38.166789,144.341445,"99 Barrabool Rd, Belmont VIC 3216, Australia",,0.0,0.0,0.0,2.0,0,0.0,22.0,,,2.0,,0.0,0.0,,,,
147,Northern Motor Group - Pre Delivery Dept,-37.704572,145.072077,"55 Clements Avenue, Bundooraâ VICâ 3083, Australia",,0.0,0.0,0.0,0.0,1,0.0,'unknown',,,1.0,,0.0,0.0,,,,
148,Club Armstrong,-38.225341,144.328361,"101 Unity Drive, Mount Duneed VIC 3217, Australia",,0.0,0.0,0.0,0.0,2,0.0,'unknown',,,2.0,,0.0,0.0,,,,
149,Middy's Lilydale,-37.761942,145.346082,"34 Melba Ave, Lilydale VIC 3140, Australia",,0.0,0.0,0.0,0.0,0,1.0,'unknown',,,1.0,,0.0,0.0,,,,
150,Mantra Epping,-37.649756,145.008102,"250 Cooper St, Epping VIC 3076, Australia",,0.0,0.0,0.0,2.0,0,2.0,5.0, 'unknown',,4.0,,0.0,0.0,,,,
151,Glenroy Community Hub,-37.708497,144.924037,"50 Wheatsheaf Rd, Glenroy 3046, Australia",,0.0,0.0,0.0,0.0,0,1.0,11.0,,,1.0,,0.0,0.0,,,,
152,Glen Eira City Council,-37.880835,145.022852,"256 Hawthorn Road, Caulfield VIC 3162, Australia",,0.0,0.0,0.0,0.0,0,4.0,'unknown',,,4.0,,0.0,0.0,,,,
153,Yarra Valley Nissan,-37.754859,145.363238,"460-462 Maroondah Highway, Lilydale VIC 3140, Australia",,0.0,0.0,0.0,0.0,0,2.0,'unknown',,,2.0,,0.0,0.0,,,,
154,Secure Parking,-37.832108,144.969126,"15-29 Bank Street, South Melbourne VIC 3205, Australia",,21.0,0.0,0.0,0.0,0,0.0,'unknown',,,21.0,,0.0,0.0,,,,
155,Good Guys,-38.148237,145.138689,"1 Gertrude St, Frankston VIC 3199, Australia",,1.0,0.0,0.0,0.0,0,0.0,'unknown',,,1.0,,0.0,0.0,,,,
156,Richmond Traders Coles,-37.817041,144.998664,"46 Cameron St, Richmond VIC 3121, Australia",,0.0,0.0,0.0,0.0,0,2.0,'unknown',,,2.0,,0.0,0.0,,,,
157,Just Honk Used Cars,-37.843884,144.782596,"4-6 Fitzgerald Rd, Laverton North VIC 3026, Australia",,0.0,0.0,0.0,0.0,0,1.0,'unknown',,,1.0,,0.0,0.0,,,,
158,Hebco Industrial,-37.833743,145.18642,"19-25 Trade Place Vermont VIC 3133, Australia",,0.0,0.0,0.0,1.0,0,0.0,'unknown',,,1.0,,0.0,0.0,,,,
159,Phillip Island Visitor Information Centre,-38.515001,145.348261,"895 Phillip Island Road, Newhavenâ VICâ 3925, Australia",,1.0,0.0,0.0,0.0,0,0.0,'unknown',,,1.0,,0.0,0.0,,,,
160,West Oval,-38.129308,144.345207,"Weddell Rd, North Geelong VIC 3215, Australia",,0.0,0.0,0.0,0.0,0,2.0,22.0,,,2.0,,0.0,0.0,,,,
161,Quest Mont Albert,-37.815833,145.10738,"741-745 Whitehorse Road, Mont Albert VIC 3127, Australia",,3.0,0.0,0.0,0.0,0,0.0,'unknown',,,3.0,,0.0,0.0,,,,
162,Community Bank Stadium,-37.673703,145.166098,"129-163 Main Hurstbridge Rd, Diamond Creek VIC 3089, Australia",,0.0,0.0,0.0,0.0,0,1.0,'unknown',,,1.0,,0.0,0.0,,,,
163,Collingwood Library,-37.804471,144.99327,"13 Stanton St, Abbotsford VIC 3067, Australia",,0.0,4.0,4.0,0.0,0,0.0,50.065,,,8.0,,0.0,0.0,,,,
164,Holmesglen Private Hospital,-37.93704,145.050288,"490 South Rd, Moorabbin VIC 3189, Australia",,0.0,0.0,0.0,0.0,0,4.0,'unknown',,,4.0,,0.0,0.0,,,,
165,Coles South Melbourne,-37.832375,144.960369,"229 Coventry St, South Melbourne VIC 3205, Australia",,1.0,0.0,0.0,0.0,0,0.0,'unknown',,,1.0,,0.0,0.0,,,,
166,IKEA Richmond,-37.812895,145.010271,"630 Victoria St, Richmond VIC 3121, Australia",,0.0,0.0,0.0,0.0,0,4.0,'unknown',,,4.0,,0.0,0.0,,,,
167,Prahran Square,-37.847695,144.99266,"Prahran Square, 30-40 Izett Street, Prahran VIC 3181, Australia",,10.0,0.0,0.0,0.0,0,2.0,'unknown',,,12.0,,0.0,0.0,,,,
168,Ivanhoe Library,-37.766356,145.044964,"233 Upper Heidelberg Road, Ivanhoe VIC 3079, Australia",,0.0,0.0,0.0,0.0,0,2.0,'unknown',,,2.0,,0.0,0.0,,,,
169,Coles Lilydale,-37.756189,145.354065,"51-59 Anderson St, Lilydale VIC 3140, Australia",,3.0,0.0,0.0,0.0,0,0.0,'unknown',,,3.0,,0.0,0.0,,,,
170,Springvale Homemaker Centre,-37.927929,145.143552,"Springvale Homemaker Centre, 917 Princes Highway, Springvale VIC 3171, Australia",,0.0,0.0,0.0,3.0,0,7.0,'unknown', 22.0,,10.0,,0.0,0.0,,,,
171,Clayton M City,-37.922053,145.140054,"2145 Dandenong Road, Clayton VIC 3168, Australia",,0.0,0.0,0.0,0.0,0,1.0,'unknown',,,1.0,,0.0,0.0,,,,
172,Watergardens Shopping Centre,-37.699043,144.775876,"399 Melton Highway, Taylors Lakes VIC 3038",,0.0,0.0,0.0,3.0,0,0.0,22.0,,,3.0,,0.0,0.0,,,,
173,Pullman Melbourne on the Park,-37.815994,144.983228,"192 Wellington Parade, Melbourne VIC 3002",,0.0,0.0,0.0,2.0,0,0.0,'unknown',,,2.0,,0.0,0.0,,,,
174,Woolworths Fishermans Bend,-37.830671,144.931658,"525 Graham St, Port Melbourne VIC 3207, Australia",,0.0,0.0,0.0,0.0,0,2.0,'unknown',,,2.0,,0.0,0.0,,,,
175,Cunningham Pier,-38.143296,144.361213,"10 Western Foreshore Rd, Geelong VIC 3220, Australia",,0.0,0.0,0.0,0.0,0,4.0,'unknown',,,4.0,,0.0,0.0,,,,
176,Monash University Clayton - Car Park S2,-37.914282,145.1338,"20 Ancora Imparo Way, Clayton VIC 3800, Australia",,1.0,0.0,0.0,0.0,0,2.0,'unknown',,,3.0,,0.0,0.0,,,,
177,Pacific Epping Shopping Centre,-37.653416,145.016892,"583 High St, Epping VIC 3076, Australia",,0.0,0.0,0.0,2.0,0,0.0,22.0,,,2.0,,0.0,0.0,,,,
178,Eastland Shopping Centre,-37.81425,145.229003,"175 Maroondah Hwy, Ringwood VIC 3134, Australia",,0.0,0.0,0.0,4.0,0,0.0,11.0, 15.0,,4.0,,0.0,0.0,,,,
179,Red Rock (Coming Soon),-38.453893,145.199794,"4 Lynton Ct, Cowes VIC 3922, Australia",,1.0,0.0,0.0,0.0,0,0.0,'unknown',,,1.0,,0.0,0.0,,,,
180,The Arts Centre,-37.822715,144.96767,2 Kavanagh St Southbank VIC 3006 Australia,,0.0,0.0,0.0,0.0,2,0.0,'unknown',,,2.0,,0.0,0.0,,,,
181,Melbourne Museum,-37.804609,144.972702,"11 Nicholson St, Carlton VIC 3053, Australia",,0.0,0.0,0.0,0.0,2,0.0,'unknown',,,2.0,,0.0,0.0,,,,
182,Wilsonâs Carpark,-37.835734,144.973525,"1-3 Queens Road, Melbourne VIC 3004, Australia",,1.0,0.0,0.0,0.0,0,0.0,'unknown',,,1.0,,0.0,0.0,,,,
183,Flagstaff City Inn,-37.810116,144.951048,"45 Dudley St, West Melbourne VIC 3003, Australia",,1.0,0.0,0.0,0.0,0,0.0,'unknown',,,1.0,,0.0,0.0,,,,
184,Morris Moor (Coming Soon),-37.941172,145.061402,"282/284 Chesterville Rd, Moorabbin VIC 3189, Australia",,0.0,0.0,0.0,0.0,0,6.0,'unknown',,,6.0,,0.0,0.0,,,,
185,The Prince Hotel,-37.862284,144.973965,"2 Acland St, St Kilda VIC 3182, Australia",,0.0,0.0,0.0,2.0,0,2.0,'unknown', 22.0,,4.0,,0.0,0.0,,,,
186,Stokehouse St Kilda,-37.86758,144.974352,"30 Jacka Blvd, St Kilda VIC 3182, Australia",,0.0,0.0,0.0,0.0,0,1.0,'unknown',,,1.0,,0.0,0.0,,,,
187,Hotel 115 Guest Carpark,-37.807448,145.039021,"115 Cotham Rd, Kew VIC 3101, Australia",,1.0,0.0,0.0,0.0,0,0.0,'unknown',,,1.0,,0.0,0.0,,,,
188,Clubs Assist,-38.022421,145.213927,"237 243 Frankston Dandenong Rd, Dandenong South, VIC, 3175",,0.0,0.0,0.0,0.0,1,0.0,'unknown',,,1.0,,0.0,0.0,,,,
189,Lygon Street Car park,-37.802158,144.96708,204-218 Lygon St Carlton Victoria 3053 Australia,,0.0,0.0,0.0,0.0,0,1.0,'unknown',,,1.0,,0.0,0.0,,,,
190,Melbourne Convention Exhibition Centre,-37.82613,144.953107,"16 Normanby Road, South Wharf VIC 3006, Australia",,3.0,0.0,0.0,0.0,0,0.0,'unknown',,,3.0,,0.0,0.0,,,,
191,Crown Metropol Melbourne,-37.825511,144.957692,"8 Whiteman Street, Southbank, Victoria, Australia, VIC 3006",,0.0,0.0,0.0,1.0,0,0.0,22.0,,,1.0,,0.0,0.0,,,,
192,Melbourne Central Carpark,-37.811734,144.963518,"300 Lonsdale St, Melbourne VIC 3000, Australia",,1.0,0.0,0.0,0.0,0,0.0,'unknown',,,1.0,,0.0,0.0,,,,
193,Westfield Doncaster,-37.78342,145.126058,"619 Doncaster Rd, Doncaster VIC 3108, Australia",,0.0,0.0,0.0,2.0,4,0.0,6.6, 22.0,,6.0,,0.0,0.0,,,,
194,Bitternfields Shopping Centre,-38.336376,145.177183,"2432 Frankston - Flinders Rd, Bittern VIC 3918, Australia",,1.0,0.0,0.0,0.0,0,0.0,'unknown',,,1.0,,0.0,0.0,,,,
195,Armstrong Creek Town Centre,-38.22808,144.339931,"540 Torquay Rd, Armstrong Creek VIC 3217, Australia",,0.0,0.0,0.0,0.0,0,2.0,7.0,,,2.0,,0.0,0.0,,,,
196,Secure Parking (300 Flinders St),-37.818268,144.96402,"300 Flinders St, Melbourne VIC 3000, Australia",,0.0,0.0,0.0,2.0,0,0.0,3.0,,,2.0,,0.0,0.0,,,,
197,Dan Murphyâs Armstrong Creek,-38.225361,144.337345,"458 Torquay Road, Armstrong Creek 3217, Australia",,0.0,0.0,0.0,0.0,0,3.0,'unknown',,,3.0,,0.0,0.0,,,,
198,South Melbourne Market Rooftop Parking,-37.83203,144.956791,"322 Coventry St, South Melbourne VIC 3205",,0.0,0.0,0.0,0.0,0,2.0,'unknown',,,2.0,,0.0,0.0,,,,
199,Berwick BMW,-38.026209,145.311511,"6 Coventry Rd, Narre Warren VIC 3805",,0.0,0.0,0.0,0.0,0,2.0,'unknown',,,2.0,,0.0,0.0,,,,
200,Park Hyatt Melbourne,-37.811933,144.976125,"1 Parliament Square Off, Parliament Pl, Melbourne VIC 3002, Australia",,0.0,0.0,0.0,0.0,0,2.0,'unknown',,,2.0,,0.0,0.0,,,,
201,Greensborough Plaza,-37.702301,145.102344,"25 Main St, Greensborough VIC 3088, Australia",,0.0,0.0,0.0,0.0,0,4.0,'unknown',,,4.0,,0.0,0.0,,,,
202,WaterMarc Car Park,-37.704042,145.10525,"1 Flintoff St, Greensborough VIC 3088, Australia",,0.0,0.0,0.0,0.0,0,3.0,'unknown',,,3.0,,0.0,0.0,,,,
203,Flagstaff Car Park,-37.813111,144.955756,"535 Little Lonsdale St, Melbourne VIC 3004, Australia",,0.0,0.0,0.0,2.0,0,0.0,22.0,,,2.0,,0.0,0.0,,,,
204,Queen Victoria Market - Underground Carpark,-37.807804,144.958282,"460 Queen St, Melbourne VIC 3000, Australia",,0.0,0.0,0.0,0.0,0,12.0,'unknown',,,12.0,,0.0,0.0,,,,
205,300 Latrobe Street - Wilson Car Park,-37.810021,144.960653,300 Latrobe Street Melbourne ,,3.0,0.0,0.0,0.0,0,0.0,'unknown',,,3.0,,0.0,0.0,,,,
206,Pentridge Shopping Centre,-37.736669,144.969336,"1 Champ St, Coburg VIC 3058, Australia",,0.0,0.0,0.0,0.0,0,3.0,'unknown',,,3.0,,0.0,0.0,,,,
207,Coles Express with co-located Hungry Jacks,-37.829682,144.917185,"46 Cook St, Port Melbourne VIC 3207, Australia",,1.0,0.0,0.0,0.0,0,0.0,'unknown',,,1.0,,0.0,0.0,,,,
208,Westfield Southland,-37.958461,145.053615,"1239 Nepean Hwy, Cheltenham VIC 3192, Australia",,0.0,0.0,0.0,0.0,4,0.0,'unknown',,,4.0,,0.0,0.0,,,,
209,Westfield Southland - Icon Car Wash,-37.959294,145.056598,"40 Chesterville Rd, Cheltenham VIC 3192, Australia",,1.0,0.0,0.0,0.0,0,0.0,'unknown',,,1.0,,0.0,0.0,,,,
210,Hyatt Centric Melbourne,-37.820407,144.955802,"25 Downie St, Melbourne VIC 3000, Australia",,0.0,0.0,0.0,0.0,0,2.0,'unknown',,,2.0,,0.0,0.0,,,,
211,Chadstone Shopping Centre Carpark A,-37.886337,145.07958,"1341 Dandenong Rd, Chadstone VIC 3148",,0.0,0.0,0.0,0.0,0,5.0,'unknown',,,5.0,,0.0,0.0,,,,
212,Jet City Hangar 131,-37.719978,144.892935,"Essendon Fields VIC 3042, Australia",,0.0,0.0,0.0,1.0,0,0.0,22.0,,,1.0,,0.0,0.0,,,,
213,Essendon Nissan,-37.720262,144.895849,"288 Wirraway Rd, Essendon Fields, VIC, 3041",,0.0,0.0,0.0,0.0,1,0.0,'unknown',,,1.0,,0.0,0.0,,,,
214,Brooklands of Mornington,-38.221655,145.045807,"99 Tanti Ave, Mornington, VIC, Australia, 3931",,0.0,0.0,0.0,2.0,0,0.0,22.0,,,2.0,,0.0,0.0,,,,
215,Flinders Hotel,-38.474449,145.019202,"23-31 Cook Street, Flinders, Victoria, Australia, VIC 3929",,0.0,0.0,0.0,2.0,0,0.0,8.0,,,2.0,,0.0,0.0,,,,
216,Flinders General Store rear car park,-38.473287,145.016892,"48 Cook Street, Flinders VIC 3929, Australia",,0.0,0.0,0.0,0.0,0,1.0,'unknown',,,1.0,,0.0,0.0,,,,
217,Secure Parking - 460 Lonsdale Street Car Park,-37.813049,144.958347,"460 Lonsdale St, Melbourne VIC 3000, Australia",,1.0,0.0,0.0,0.0,0,0.0,'unknown',,,1.0,,0.0,0.0,,,,
218,David Street Car Park,-37.771404,144.962021,"1 David St, Brunswick, Victoria, Australia, 3056",,0.0,0.0,0.0,0.0,0,2.0,'unknown',,,2.0,,0.0,0.0,,,,
219,Stockland Point Cook - Below Woolworths,-37.884233,144.734115,"1A Main Street, Point Cook VIC 3030, Australia",,0.0,0.0,0.0,1.0,1,0.0,'unknown', 22.0,,2.0,,0.0,0.0,,,,
220,Middy's Smart Centre (Behind Mulgrave Branch),-37.918327,145.148532,"214 Wellington Rd, Clayton VIC 3168, Australia",,0.0,0.0,0.0,0.0,0,1.0,'unknown',,,1.0,,0.0,0.0,,,,
221,The Fashion Capital - Tesla,-37.884862,145.082357,"1341 Dandenong Rd, Malvern East VIC 3145, Australia",,0.0,0.0,0.0,2.0,0,0.0,'unknown',,,2.0,,0.0,0.0,,,,
222,Cellarbrations,-37.809802,144.948932,"185a Rosslyn St, West Melbourne VIC 3003, Australia",,0.0,0.0,0.0,0.0,0,4.0,'unknown',,,4.0,,0.0,0.0,,,,
223,District Docklands Shopping - West Carpark,-37.812855,144.93695,"8-9 Star Circus, Docklands VIC 3008, Australia",,0.0,0.0,0.0,1.0,0,0.0,22.0,,,1.0,,0.0,0.0,,,,
224,Wilson Parking,-37.811294,144.967823,"222 Russell St, Melbourne VIC 3000, Australia",,0.0,0.0,0.0,0.0,0,2.0,11.0,,,2.0,,0.0,0.0,,,,
225,BP Caroline Springs (Coming Soon),-37.75577,144.741077,"1324-1332 Western Hwy, Caroline Springs VIC 3023, Australia",,0.0,0.0,1.0,0.0,0,0.0,'unknown',,,1.0,,0.0,0.0,,,,
226,Alto Hotel,-37.816254,144.954636,"636 Bourke St, Melbourne VIC 3000, Australia",,2.0,0.0,0.0,3.0,1,0.0,'unknown', 22.0,,7.0,,0.0,1.0,,,,
227,Bob Morell Reserve,-38.163586,144.352507,"514 Moorabool St, South Geelong VIC 3220, Australia",,4.0,0.0,0.0,0.0,0,0.0,'unknown',,,4.0,,0.0,0.0,,,,
228,Rex Gorell Nissan,-38.16275,144.350693,"481 Latrobe Terrace Geelong VIC 3220, Australia",,0.0,0.0,0.0,0.0,0,1.0,'unknown',,,1.0,,0.0,0.0,,,,
229,Queens & Collins,-37.81594,144.961493,"Level 6/93-95 Queen St, Melbourne VIC 3000, Australia",,0.0,0.0,0.0,0.0,0,4.0,'unknown',,,4.0,,0.0,0.0,,,,
230,Wilson Parking,-37.814781,144.956451,"542 Little Bourke St, Melbourne VIC 3000, Australia",,1.0,0.0,0.0,0.0,0,0.0,'unknown',,,1.0,,0.0,0.0,,,,
231,Kinglake Library (rear of the Police Station),-37.531509,145.339577,"19 Whittlesea-Kinglake Rd, Kinglake VIC 3763, Australia",,0.0,0.0,0.0,0.0,0,2.0,22.0,,,2.0,,0.0,0.0,,,,
232,Kinglake Reserve (beside public toilets),-37.53009,145.340696,"1 Kinglake-Glenburn Rd, Kinglake VIC 3763, Australia",,0.0,0.0,0.0,0.0,0,2.0,22.0,,,2.0,,0.0,0.0,,,,
233,Grand Hyatt Melbourne,-37.814844,144.969685,"123 Collins St, Melbourne VIC 3000, Australia",,0.0,0.0,0.0,1.0,0,0.0,22.0,,,1.0,,0.0,0.0,,,,
234,Whittlesea Motel,-37.511926,145.119479,"36 Walnut St, Whittlesea VIC 3757, Australia",,0.0,0.0,0.0,0.0,0,1.0,'unknown',,,1.0,,0.0,0.0,,,,
235,Federation Square Car Park,-37.817739,144.971282,"Russell St, Melbourne, Victoria, 3000 Australia",,0.0,0.0,0.0,0.0,0,2.0,'unknown',,,2.0,,0.0,0.0,,,,
236,ACDC Garage,-37.816185,144.97077,"114-128 Flinders St, Melbourne VIC 3000, Australia",,0.0,0.0,0.0,3.0,0,2.0,3.0, 'unknown',,5.0,,0.0,0.0,,,,
237,Secure Parking (Southern Cross),-37.812452,144.969535,"129 Bourke St, Melbourne VIC 3000, Australia",,0.0,0.0,0.0,0.0,2,0.0,'unknown',,,2.0,,0.0,0.0,,,,
238,Holiday Inn Express Melbourne Little Collins,-37.817852,144.955291,"589-599 Little Collins St, Melbourne VIC 3000, Australia",,0.0,0.0,0.0,0.0,0,3.0,'unknown',,,3.0,,0.0,0.0,,,,
239,Tooronga Village,-37.845907,145.046669,"766 Toorak Rd, Glen Iris VIC 3146",,0.0,0.0,0.0,2.0,0,0.0,22.0,,,2.0,,0.0,0.0,,,,
240,Victoria Gardens Shopping Centre,-37.812603,145.011729,"Unit 41 B/620 Victoria St, Richmond VIC 3121, Australia",,0.0,0.0,0.0,0.0,0,2.0,'unknown',,,2.0,,0.0,0.0,,,,
241,Wilson Parking Eureka,-37.821726,144.965184,"70 City Rd, Southbank VIC 3006, Australia",,0.0,0.0,0.0,0.0,0,2.0,11.0,,,2.0,,0.0,0.0,,,,
242,Hungry Fox CafÃ©,-37.719767,144.89451,"Essendon Fields Airport, Wirraway Road, Essendon Fields VIC 3041, Australia",,0.0,0.0,0.0,0.0,0,1.0,'unknown',,,1.0,,0.0,0.0,,,,
243,QV Melbourne - Car Park,-37.810679,144.966601,"180 Lonsdale Street, Melbourne VIC 3000, Australia",,3.0,0.0,0.0,0.0,0,0.0,'unknown',,,3.0,,0.0,0.0,,,,
244,The Fashion Capital - Parking Block F,-37.887286,145.0824,"1341 Dandenong Road, Malvern East VIC 3145, Australia",,0.0,0.0,0.0,4.0,0,0.0,10.0,,,4.0,,0.0,0.0,,,,
245,Holiday Inn Express Melbourne Southbank,-37.821895,144.966652,"35-47 City Rd, Southbank VIC 3006, Australia",,0.0,0.0,0.0,0.0,0,9.0,'unknown',,,9.0,,0.0,0.0,,,,
246,Secure Parking (450 Flinders Lane),-37.818758,144.958866,"450 Flinders Ln, Melbourne VIC 3000, Australia",,0.0,0.0,0.0,0.0,0,10.0,'unknown',,,10.0,,0.0,0.0,,,,
247,Rialto Car Park,-37.8191,144.957613,"476 Flinders Ln, Melbourne VIC 3000, Australia",,1.0,0.0,0.0,0.0,0,2.0,'unknown',,,3.0,,0.0,0.0,,,,
248,Lorbek Luxury Cars,-37.833209,144.919764,"327 Plummer St, Port Melbourne VIC 3207, Australia",,0.0,0.0,0.0,0.0,0,3.0,22.0,,,3.0,,0.0,0.0,,,,
249,Lorbek Luxury Cars,-37.832093,144.919335,"30 Prohasky St, Port Melbourne VIC 3207, Australia",,0.0,0.0,0.0,0.0,0,7.0,'unknown',,,7.0,,0.0,0.0,,,,
0,Mossman Gorge Centre,-16.4742541, 145.3483542,"212r Mossman Gorge Rd, Mossman Gorge QLD 4873, Australia",,,,,,,2.0,7,,,,0,,,,,QLD,
1,QESH - Port Douglas,-16.5271215, 145.4631622,143 - 145 Port Douglas Road Port Douglas QLD 4877 AU,,,1.0,1.0,, ,1.0,50,50,,,0.3,,,,,QLD,
2,Hartley's Crocodile Adventures,-16.6597114, 145.5663743,"Captain Cook Hwy, Wangetti QLD 4871, Australia",,,,,,,2.0,7,,,,0,,,,,QLD,
3,Pullman Palm Cove Sea Temple Resort and Spa,-16.7527799, 145.6706987,"5 Triton St, Palm Cove QLD 4879, Australia",,,,,,,1.0,11,,,,N.A,,,,,QLD,
4,Skyrail Rainforest Cableway,-16.8476624, 145.6950452,"6 Skyrail Dr, Smithfield QLD 4878, Australia",,,,,,,2.0,7,,,,0,,,,,QLD,
5,Cairns Beach Volleyball Court,-16.9036743, 145.7617551,"285-291 Esplanade, Cairns North QLD 4870, Australia",,,,,,,,,,,,N.A,,1.0,,,Queensland,
6,QESH The Pier Cairns,-16.9198193, 145.7805076,"1 Pier Point Rd, Cairns City QLD 4870, Australia",,,1.0,1.0,,,2.0,50,50,,,0.3,,,,,Queensland,
7,Pullman Reef Hotel Casino,-16.923837, 145.7796679,"1/35/41 Wharf St, Cairns City QLD 4870, Australia",,,,,2.0,,3.0,11,11,,,2,,,,,QLD,
8,Cairns Central,-16.9245893, 145.7716095,"21 Mcleod Street, Cairns QLD 4870, Australia",,,,,2.0,,,22,,,,N.A,,,,,Queensland,
9,Historic Village Herberton,-17.3723917, 145.385589,"6 Broadway, Herberton QLD 4887, Australia",,,,,,,2.0,7,,,,0,,,,,Queensland,
10,QESH - Innisfail,-17.5209629, 146.0261103,"Glady Street Innisfail QLD 4860, Australia",,,1.0,1.0,,,1.0,50,50,,,0.3,,,,,QLD,
11,Paronella Park,-17.6524637, 145.9570688,"1671 Innisfail Japoon Rd, Mena Creek QLD 4871, Australia",,,,,,,2.0,7,,,,0,,,,,QLD,
12,Griffith,-17.9347544, 145.9253729,"Morris St, Tully QLD 4854, Australia",,,1.0,1.0,,,2.0,50,22,,,0.3,,,,,Queensland,
13,QESH - Cardwell,-18.2625592, 146.0249012,"144 Victoria St, Cardwell QLD 4849, Australia",,,1.0,1.0,,,1.0,50,50,,,0.3,,,,,Queensland,
14,Frosty Mango,-18.949778, 146.2768679,"1 Bruce Hwy, Mutarnee, Queensland, Australia, QLD 4816",,,,,2.0,,,22,,,,Paid,,,,,QLD,
15,Mercure Townsville,-19.2714721, 146.7858734,"166 Woolcock St, Currajong, Australia, QLD 4812",,,,,2.0,,,22,,,,N.A,,,,,QLD,
16,QESH Ayr,-19.5740619, 147.4056813,"133 Edwards St, Ayr QLD 4807, Australia",,,1.0,1.0,,,1.0,50,50,,,0.3,,,,,QLD,
17,Centennial Park Charters Towers QESH,-20.0658342, 146.2617747,"72 Hackett Terrace, Richmond Hill QLD 4820, Australia",,,1.0,1.0,,,2.0,50,22,,,,,,,,QLD,
18,Marlborough South,-22.8276466, 149.9327812,"71209 Kunwarara Rd, Marlborough QLD 4705, Australia",,,1.0,1.0,,,2.0,50,22,,,0.3,,,,,Queensland,
19,Midlander Motor Inn,-23.5236365, 148.1593512,"12 School Lane, Emerald, Australia, QLD 4720",,,,,2.0,,,22,,,,N.A,,,,,Queensland,
0,Hobsons Bay Civic Centre,-37.86361164,144.8310105,"115 Civic Parade, Altona VIC 3018, Australia",,,1.0,1.0,,,,,,,,,,,,,,
1,Ampol Foodary Altona North,-37.84646146,144.8088603,"1 Horsburgh Drive, Altona North, VIC 3025, Australia",,,2.0,2.0,,,,,,,,,,,,,,
2,Middyâs Port Melbourne,-37.82788423,144.9262572,"2 Thackray Rd, Port Melbourne VIC 3207, Australia",,,1.0,1.0,,,,,,,,0.4,,,,,,
3,Shell Taylors Lakes,-37.69671193,144.7823411,"Coles Express 410 Melton Highway, Taylors Lakes VIC 3038, Australia",,,2.0,2.0,,,,,,,,0.6,,,,,,
4,Westfield Airport West,-37.71395622,144.8860831,"29-35 Louis St, Airport West VIC 3042, Australia",,,2.0,6.0,,,,,,,,0.4,,,,,,
5,Moonee Ponds Supercharger,-37.76556152,144.9236774,"665 Mt Alexander Rd, Moonee Ponds VIC 3039, Australia",,,,,6.0,,,,,,,,,,,,,
6,CB Smith Reserve,-37.70191464,144.9681533,99 Jukes Road Fawkner VIC 3060 AU,,,1.0,1.0,,,,,,,,,,,,,,
7,Boundary Rd Parking Lot,-37.71912127,144.9615062,"11 Boundary Rd, Coburg North VIC 3058, Australia",,,1.0,1.0,,,,,,,,,,,,,,
8,Coburg Town Hall / Moreland City,-37.74058156,144.9694655,"90 Bell St, Coburg VIC 3058, Australia",,,1.0,1.0,,,1.0,,,,,,,,,,,
9,Edward St Parking Lot,-37.77360197,144.9618831,"15 Edward St, Brunswick VIC 3056, Australia",,,2.0,2.0,,,2.0,,,,,,,,,,,
10,Collingwood Library,-37.80425886,144.9932374,"13 Stanton St, Abbotsford VIC 3067, Australia",,,2.0,2.0,,,,,,,,0.4,,,,,,
11,Melbourne Richmond Supercharger,-37.83170783,144.9965223,"650 Church St, Cremorne VIC 3121, Australia",,,,,4.0,,,,,,,,,,,,,
12,Uni Hill Town Centre,-37.68247053,145.0710002,"Shop 17/5 Janefield Dr, Bundoora VIC 3083, Australia",,,2.0,2.0,,,,,,,,0.4,,,,,,
13,Corsair Solutions,-37.76693229,145.0308257,"370 Darebin Rd, Thornbury VIC 3071, Australia",,,,2.0,,,,,,,,0.4,,,,,,
14,Collingwood Library,-37.82022948,145.0402257,"20 William St, Hawthorn VIC 3122, Australia",,,1.0,1.0,,,,,,,,,,,,,,
15,Camberwell Supercharger,-37.82867623,145.0564007,"793 Burke Road , Camberwell, VIC, Australia, 3124",,,,,6.0,,,,,,,,,,,,,
16,Wanzl / Rectifier Technologies,-37.85392974,145.1043512,"97 Highbury Rd, Burwood VIC 3125, Australia",,,,1.0,,,,,,,,,,,,,,
17,Monash University Caulfield Car Park,-37.87579762,145.0436391,"880 Princes Hwy Service Rd, Caulfield East VIC 3145, Australia",,1.0,1.0,1.0,,,,,,,,,,,,,,
18,Monash University Clayton - Car Park N1,-37.90797166,145.1312195,"10 Research Way, Clayton VIC 3168, Australia",,,1.0,1.0,,,2.0,,,,,,,,,,,
19,Porsche Centre Brighton,-37.92549673,145.0278825,"855 Nepean Hwy, Bentleigh VIC 3204, Australia",,,1.0,,,,,,,,,,,,,,,
20,Bayside City Council,-37.95950238,145.0169255,"76 Royal Ave, Sandringham VIC 3191, Australia",,,1.0,1.0,,,,,,,,0.2,,,,,,
21,EVolution HQ,-37.94260024,145.1197763,"Unit 32, 231 Osborne Avenue, Clayton South VIC 3169, Australia",,,1.0,1.0,,,2.0,,,,,,,,,,,
22,Ampol Dandenong Stud Road,-37.97092578,145.2235052,"Corner Stud And, Heatherton Rd, Dandenong VIC 3175, Australia",,,2.0,2.0,,,,,,,,0.6,,,,,,
23,Chelsea Swansea Road Car Park,-38.05485257,145.1166042,"1 Swansea Rd, Chelsea 3196, Australia",,,2.0,2.0,,,,,,,,0.4,,,,,,
24,Mornington Supercharger,-38.23425677,145.0514638,"75 Mornington-Tyabb Rd, Mornington VIC 3931, Australia",,,,,6.0,,,,,,,0.6,,,,,,
25,Sorrento Community Centre,-38.33811816,144.7372775,"860 Melbourne Rd, Sorrento VIC 3943, Australia",,,2.0,2.0,,,,,,,,0.4,,,,,,
26,Cobblebank Stadium,-37.71596946,144.5972922,"Astley Dr, Bridge Rd, Strathtulloh VIC 3338, Australia",,,1.0,1.0,,,,,,,,,,,,,,
27,McDonaldâs Melton South,-37.72198498,144.5729271,"179-253 Exford Rd, Weir Views VIC 3338, Australia",,,2.0,2.0,,,,,,,,,,,,,,
28,CTR Whittlesea,-37.51043222,145.11856,"74A Church St, Whittlesea VIC 3757, Australia",,,1.0,1.0,,,,,,,,0.4,,,,,,
0,Chargefox Charging Station,-36.63115799635183, 142.22291915619667,126 Baillie St,,,1.0,1.0,0.0,,0.0,,,,,,,,,0.0,,Horsham
1,Chargefox Charging Station,-37.469333979755596, 143.8550343241236,61 Curtis St,,,1.0,1.0,0.0,,0.0,,,,,,,,,0.0,,Ballarat
2,Tesla Destination Charger,-37.28599785037582, 144.1736378360946,219 Main Rd,,,0.0,0.0,1.0,,0.0,,,,,,,,,0.0,,Hepburn
3,Electric Vehicle Charging Station,-37.03208342983455, 144.0582813921051,"49, B180",,,0.0,0.0,0.0,,0.0,,,,,,,,,1.0,,Newstead
4,Evie Charging Station,-37.005767768827994, 144.21758314809065,3450/33 Forest St,,,1.0,1.0,0.0,,0.0,,,,,,,,,0.0,,Castlemaine
5,Evie Charging Station,-37.1722796148393, 144.47576185606715,1 Hutton St,,,1.0,1.0,0.0,,0.0,,,,,,,,,0.0,,Kyneton
6,Tesla Destination Charger,-37.23502198834094, 144.42290778775285,72 Piper St,,,0.0,0.0,1.0,,0.0,,,,,,,,,0.0,,Kyneton
7,Tesla Destination Charger,-37.33350334365738, 144.14262090141872,4 King St,,,0.0,0.0,1.0,,0.0,,,,,,,,,0.0,,Daylesford
8,Evie Charging Station,-37.05060230278171, 143.74185155695164,Station St,,,1.0,1.0,0.0,,0.0,,,,,,,,,0.0,,Maryborough
9,Evie Charging Station,-36.90919906327723, 144.26702162408614,High St,,,1.0,1.0,0.0,,0.0,,,,,,,,,0.0,,Harcourt
10,Tesla Destination Charger,-36.67605388090019, 144.24504896808813,371 High St,,,0.0,0.0,1.0,,0.0,,,,,,,,,0.0,,Golden Square
11,Tesla Destination Charger,-36.671648098042496, 144.30547377208265,150 Condon St,,,0.0,0.0,1.0,,0.0,,,,,,,,,0.0,,Kennington
12,Evie Charging Station,-36.75541430968068, 144.28700075602384,Gaol Rd,,,1.0,1.0,0.0,,0.0,,,,,,,,,0.0,,Bendigo
13,Evie Charging Station,-37.35588720430584, 144.52822745569281,124 High St,,,1.0,1.0,0.0,,0.0,,,,,,,,,0.0,,Woodend
14,Chargefox Charging Station,-36.762084961158926, 144.2828010465611,7 Railway Pl,,,0.0,0.0,0.0,,1.0,,,,,,,,,0.0,,Bendigo
15,Evie Charging Station,-36.531930768600965, 143.86155158027182,Storm Lne,,,1.0,1.0,0.0,,0.0,,,,,,,,,0.0,,Inglewood
16,Evie Charging Station,-36.372030681103425, 143.61095264121334,Chapel St,,,1.0,1.0,0.0,,0.0,,,,,,,,,0.0,,Wedderburn
17,Evie Charging Station,-36.88827855862675, 145.24742547223372,Jones St,,,1.0,1.0,0.0,,0.0,,,,,,,,,0.0,,Avenel
18,Tesla Destination Charger,-36.74595006493532, 145.55907729236358,53 Clifton St,,,0.0,0.0,1.0,,0.0,,,,,,,,,0.0,,Euroa
19,Chargefox Charging Station,-36.72751174841472, 145.59358907054357,167 Tarcombe St,,,1.0,1.0,0.0,,0.0,,,,,,,,,0.0,,Euroa
20,Electric Vehicle Charging Station,-36.38578464084992, 145.39696529030473,530 Wyndham St,,,0.0,0.0,0.0,,1.0,,,,,,,,,0.0,,Shepparton
21,Evie Charging Station,-35.9404835358816, 144.72551622376017,438 High St,,,1.0,1.0,0.0,,0.0,,,,,,,,,0.0,,Echuca
22,Evie Charging Station,-36.36984769872202, 145.36189904857804,77 Midland Hwy,,,1.0,1.0,0.0,,0.0,,,,,,,,,0.0,,Mooroopna
23,Chargefox Charging Station,-35.726719565595815, 145.65935410367524,154 Campbell Rd,,,0.0,0.0,0.0,,1.0,,,,,,,,,0.0,,Cobram
24,Tesla Destination Charger,-36.02622585254252, 146.4590454574334,217 Main St,,,0.0,0.0,1.0,,0.0,,,,,,,,,0.0,,Rutherglen
